{
  "type": "FeatureCollection",
  "features": [
    {
      "type": "Feature",
      "properties": {
        "norad_id": 41860,
        "name": "GSAT0212 (GALILEO 16)",
        "group": "galileo",
        "lat": -5.49850106518778,
        "lon": 102.01783673222589,
        "alt_km": 23217.614945727528,
        "timestamp": "2025-12-27T21:25:02.776545+00:00",
        "meta_object_name": "GSAT0212 (GALILEO 16)",
        "meta_object_id": "2016-069B",
        "meta_epoch": "2025-12-26T03:26:41.871552",
        "meta_mean_motion": 1.70474669,
        "meta_eccentricity": 0.00020518,
        "meta_inclination": 55.3873,
        "meta_ra_of_asc_node": 105.8745,
        "meta_arg_of_pericenter": 19.1308,
        "meta_mean_anomaly": 340.872,
        "meta_ephemeris_type": 0,
        "meta_classification_type": "U",
        "meta_norad_cat_id": 41860,
        "meta_element_set_no": 999,
        "meta_rev_at_epoch": 5670,
        "meta_bstar": 0,
        "meta_mean_motion_dot": 1.8e-07,
        "meta_mean_motion_ddot": 0,
        "tle_line1": "1 41860U 16069B   25360.14354018  .00000018  00000+0  00000+0 0  9990",
        "tle_line2": "2 41860  55.3873 105.8745 0002051  19.1308 340.8720  1.70474669 56708"
      },
      "geometry": {
        "type": "Point",
        "coordinates": [
          102.01783673222589,
          -5.49850106518778
        ]
      }
    },
    {
      "type": "Feature",
      "properties": {
        "norad_id": 41861,
        "name": "GSAT0213 (GALILEO 17)",
        "group": "galileo",
        "lat": 40.61604359230862,
        "lon": -110.42508650820417,
        "alt_km": 23224.999661790254,
        "timestamp": "2025-12-27T21:25:02.776557+00:00",
        "meta_object_name": "GSAT0213 (GALILEO 17)",
        "meta_object_id": "2016-069C",
        "meta_epoch": "2025-12-25T22:11:16.691136",
        "meta_mean_motion": 1.70474838,
        "meta_eccentricity": 0.0002917,
        "meta_inclination": 55.3899,
        "meta_ra_of_asc_node": 105.8882,
        "meta_arg_of_pericenter": 282.7957,
        "meta_mean_anomaly": 77.1667,
        "meta_ephemeris_type": 0,
        "meta_classification_type": "U",
        "meta_norad_cat_id": 41861,
        "meta_element_set_no": 999,
        "meta_rev_at_epoch": 5656,
        "meta_bstar": 0,
        "meta_mean_motion_dot": 1.8e-07,
        "meta_mean_motion_ddot": 0,
        "tle_line1": "1 41861U 16069C   25359.92449874  .00000018  00000+0  00000+0 0  9990",
        "tle_line2": "2 41861  55.3899 105.8882 0002917 282.7957  77.1667  1.70474838 56560"
      },
      "geometry": {
        "type": "Point",
        "coordinates": [
          -110.42508650820417,
          40.61604359230862
        ]
      }
    },
    {
      "type": "Feature",
      "properties": {
        "norad_id": 41862,
        "name": "GSAT0214 (GALILEO 18)",
        "group": "galileo",
        "lat": 30.56045252004127,
        "lon": 129.85629492503787,
        "alt_km": 23219.9596629332,
        "timestamp": "2025-12-27T21:25:02.776568+00:00",
        "meta_object_name": "GSAT0214 (GALILEO 18)",
        "meta_object_id": "2016-069D",
        "meta_epoch": "2025-12-27T05:50:53.189088",
        "meta_mean_motion": 1.70474774,
        "meta_eccentricity": 0.0001607,
        "meta_inclination": 55.3883,
        "meta_ra_of_asc_node": 105.8444,
        "meta_arg_of_pericenter": 288.5964,
        "meta_mean_anomaly": 71.3802,
        "meta_ephemeris_type": 0,
        "meta_classification_type": "U",
        "meta_norad_cat_id": 41862,
        "meta_element_set_no": 999,
        "meta_rev_at_epoch": 5671,
        "meta_bstar": 0,
        "meta_mean_motion_dot": 1.5e-07,
        "meta_mean_motion_ddot": 0,
        "tle_line1": "1 41862U 16069D   25361.24367117  .00000015  00000+0  00000+0 0  9995",
        "tle_line2": "2 41862  55.3883 105.8444 0001607 288.5964  71.3802  1.70474774 56718"
      },
      "geometry": {
        "type": "Point",
        "coordinates": [
          129.85629492503787,
          30.56045252004127
        ]
      }
    },
    {
      "type": "Feature",
      "properties": {
        "norad_id": 43055,
        "name": "GSAT0215 (GALILEO 19)",
        "group": "galileo",
        "lat": 54.45186247683128,
        "lon": -31.093331412701083,
        "alt_km": 23216.82484568739,
        "timestamp": "2025-12-27T21:25:02.776579+00:00",
        "meta_object_name": "GSAT0215 (GALILEO 19)",
        "meta_object_id": "2017-079A",
        "meta_epoch": "2025-12-24T05:08:42.877824",
        "meta_mean_motion": 1.70473983,
        "meta_eccentricity": 0.00011857,
        "meta_inclination": 55.1264,
        "meta_ra_of_asc_node": 226.3216,
        "meta_arg_of_pericenter": 351.3988,
        "meta_mean_anomaly": 8.6951,
        "meta_ephemeris_type": 0,
        "meta_classification_type": "U",
        "meta_norad_cat_id": 43055,
        "meta_element_set_no": 999,
        "meta_rev_at_epoch": 5000,
        "meta_bstar": 0,
        "meta_mean_motion_dot": 7.2e-07,
        "meta_mean_motion_ddot": 0,
        "tle_line1": "1 43055U 17079A   25358.21438516  .00000072  00000+0  00000+0 0  9991",
        "tle_line2": "2 43055  55.1264 226.3216 0001185 351.3988   8.6951  1.70473983 50002"
      },
      "geometry": {
        "type": "Point",
        "coordinates": [
          -31.093331412701083,
          54.45186247683128
        ]
      }
    },
    {
      "type": "Feature",
      "properties": {
        "norad_id": 43056,
        "name": "GSAT0216 (GALILEO 20)",
        "group": "galileo",
        "lat": -54.22228639053084,
        "lon": 150.90227952590652,
        "alt_km": 23223.48346175225,
        "timestamp": "2025-12-27T21:25:02.776590+00:00",
        "meta_object_name": "GSAT0216 (GALILEO 20)",
        "meta_object_id": "2017-079B",
        "meta_epoch": "2025-12-25T02:12:49.402944",
        "meta_mean_motion": 1.7047407,
        "meta_eccentricity": 0.00022728,
        "meta_inclination": 55.1265,
        "meta_ra_of_asc_node": 226.2974,
        "meta_arg_of_pericenter": 325.9162,
        "meta_mean_anomaly": 34.1608,
        "meta_ephemeris_type": 0,
        "meta_classification_type": "U",
        "meta_norad_cat_id": 43056,
        "meta_element_set_no": 999,
        "meta_rev_at_epoch": 5003,
        "meta_bstar": 0,
        "meta_mean_motion_dot": 7e-07,
        "meta_mean_motion_ddot": 0,
        "tle_line1": "1 43056U 17079B   25359.09223846  .00000070  00000+0  00000+0 0  9995",
        "tle_line2": "2 43056  55.1265 226.2974 0002272 325.9162  34.1608  1.70474070 50037"
      },
      "geometry": {
        "type": "Point",
        "coordinates": [
          150.90227952590652,
          -54.22228639053084
        ]
      }
    },
    {
      "type": "Feature",
      "properties": {
        "norad_id": 43057,
        "name": "GSAT0217 (GALILEO 21)",
        "group": "galileo",
        "lat": 29.497561045084822,
        "lon": 23.001229563423493,
        "alt_km": 23224.418356487397,
        "timestamp": "2025-12-27T21:25:02.776602+00:00",
        "meta_object_name": "GSAT0217 (GALILEO 21)",
        "meta_object_id": "2017-079C",
        "meta_epoch": "2025-12-24T03:21:20.619936",
        "meta_mean_motion": 1.70473665,
        "meta_eccentricity": 0.00026088,
        "meta_inclination": 55.1247,
        "meta_ra_of_asc_node": 226.3216,
        "meta_arg_of_pericenter": 4.3447,
        "meta_mean_anomaly": 355.754,
        "meta_ephemeris_type": 0,
        "meta_classification_type": "U",
        "meta_norad_cat_id": 43057,
        "meta_element_set_no": 999,
        "meta_rev_at_epoch": 5000,
        "meta_bstar": 0,
        "meta_mean_motion_dot": 7.2e-07,
        "meta_mean_motion_ddot": 0,
        "tle_line1": "1 43057U 17079C   25358.13982199  .00000072  00000+0  00000+0 0  9995",
        "tle_line2": "2 43057  55.1247 226.3216 0002608   4.3447 355.7540  1.70473665 50008"
      },
      "geometry": {
        "type": "Point",
        "coordinates": [
          23.001229563423493,
          29.497561045084822
        ]
      }
    },
    {
      "type": "Feature",
      "properties": {
        "norad_id": 43058,
        "name": "GSAT0218 (GALILEO 22)",
        "group": "galileo",
        "lat": 6.567615183997916,
        "lon": -129.167529877114,
        "alt_km": 23217.241332018926,
        "timestamp": "2025-12-27T21:25:02.776614+00:00",
        "meta_object_name": "GSAT0218 (GALILEO 22)",
        "meta_object_id": "2017-079D",
        "meta_epoch": "2025-12-22T00:19:29.615808",
        "meta_mean_motion": 1.70473914,
        "meta_eccentricity": 0.00024164,
        "meta_inclination": 55.1256,
        "meta_ra_of_asc_node": 226.3779,
        "meta_arg_of_pericenter": 315.4078,
        "meta_mean_anomaly": 44.6792,
        "meta_ephemeris_type": 0,
        "meta_classification_type": "U",
        "meta_norad_cat_id": 43058,
        "meta_element_set_no": 999,
        "meta_rev_at_epoch": 4999,
        "meta_bstar": 0,
        "meta_mean_motion_dot": 7.3e-07,
        "meta_mean_motion_ddot": 0,
        "tle_line1": "1 43058U 17079D   25356.01353722  .00000073  00000+0  00000+0 0  9996",
        "tle_line2": "2 43058  55.1256 226.3779 0002416 315.4078  44.6792  1.70473914 49992"
      },
      "geometry": {
        "type": "Point",
        "coordinates": [
          -129.167529877114,
          6.567615183997916
        ]
      }
    }
  ]
}